{
  "type": "FeatureCollection",
  "features": [
    {
      "type": "Feature",
      "properties": {
        "norad_id": 36369,
        "name": "COSMOS 2251 DEB",
        "group": "cosmos-2251-debris",
        "lat": -43.13040088200906,
        "lon": 69.47424235607589,
        "alt_km": 664.166389957948,
        "timestamp": "2025-12-05T09:41:19.529637+00:00",
        "meta_object_name": "COSMOS 2251 DEB",
        "meta_object_id": "1993-036AYW",
        "meta_epoch": "2025-12-03T00:51:19.677888",
        "meta_mean_motion": 14.73251105,
        "meta_eccentricity": 0.00123913,
        "meta_inclination": 74.0302,
        "meta_ra_of_asc_node": 89.6499,
        "meta_arg_of_pericenter": 171.9331,
        "meta_mean_anomaly": 188.2043,
        "meta_ephemeris_type": 0,
        "meta_classification_type": "U",
        "meta_norad_cat_id": 36369,
        "meta_element_set_no": 999,
        "meta_rev_at_epoch": 85779,
        "meta_bstar": 0.0024127468,
        "meta_mean_motion_dot": 0.00015612,
        "meta_mean_motion_ddot": 0,
        "tle_line1": "1 36369U 93036AYW 25337.03564442  .00015612  00000+0  24127-2 0  9998",
        "tle_line2": "2 36369  74.0302  89.6499 0012391 171.9331 188.2043 14.73251105857792"
      },
      "geometry": {
        "type": "Point",
        "coordinates": [
          69.47424235607589,
          -43.13040088200906
        ]
      }
    },
    {
      "type": "Feature",
      "properties": {
        "norad_id": 36371,
        "name": "COSMOS 2251 DEB",
        "group": "cosmos-2251-debris",
        "lat": -53.36120909501756,
        "lon": 153.1117412829989,
        "alt_km": 666.3061407846862,
        "timestamp": "2025-12-05T09:41:19.529648+00:00",
        "meta_object_name": "COSMOS 2251 DEB",
        "meta_object_id": "1993-036AYY",
        "meta_epoch": "2025-12-03T20:23:16.576224",
        "meta_mean_motion": 14.70306964,
        "meta_eccentricity": 0.0010635,
        "meta_inclination": 74.0119,
        "meta_ra_of_asc_node": 178.8053,
        "meta_arg_of_pericenter": 218.5129,
        "meta_mean_anomaly": 141.5285,
        "meta_ephemeris_type": 0,
        "meta_classification_type": "U",
        "meta_norad_cat_id": 36371,
        "meta_element_set_no": 999,
        "meta_rev_at_epoch": 71314,
        "meta_bstar": 0.0033707,
        "meta_mean_motion_dot": 0.00020406,
        "meta_mean_motion_ddot": 0,
        "tle_line1": "1 36371U 93036AYY 25337.84949741  .00020406  00000+0  33707-2 0  9990",
        "tle_line2": "2 36371  74.0119 178.8053 0010635 218.5129 141.5285 14.70306964713141"
      },
      "geometry": {
        "type": "Point",
        "coordinates": [
          153.1117412829989,
          -53.36120909501756
        ]
      }
    },
    {
      "type": "Feature",
      "properties": {
        "norad_id": 36379,
        "name": "COSMOS 2251 DEB",
        "group": "cosmos-2251-debris",
        "lat": -61.669282734803105,
        "lon": -71.81276407153717,
        "alt_km": 807.7996265347037,
        "timestamp": "2025-12-05T09:41:19.529659+00:00",
        "meta_object_name": "COSMOS 2251 DEB",
        "meta_object_id": "1993-036AZG",
        "meta_epoch": "2025-12-04T05:40:14.039904",
        "meta_mean_motion": 14.36055986,
        "meta_eccentricity": 0.0044512,
        "meta_inclination": 74.012,
        "meta_ra_of_asc_node": 322.459,
        "meta_arg_of_pericenter": 93.9116,
        "meta_mean_anomaly": 287.0912,
        "meta_ephemeris_type": 0,
        "meta_classification_type": "U",
        "meta_norad_cat_id": 36379,
        "meta_element_set_no": 999,
        "meta_rev_at_epoch": 64706,
        "meta_bstar": 0.00051818,
        "meta_mean_motion_dot": 1.499e-05,
        "meta_mean_motion_ddot": 0,
        "tle_line1": "1 36379U 93036AZG 25338.23627361  .00001499  00000+0  51818-3 0  9998",
        "tle_line2": "2 36379  74.0120 322.4590 0044512  93.9116 287.0912 14.36055986647063"
      },
      "geometry": {
        "type": "Point",
        "coordinates": [
          -71.81276407153717,
          -61.669282734803105
        ]
      }
    },
    {
      "type": "Feature",
      "properties": {
        "norad_id": 36385,
        "name": "COSMOS 2251 DEB",
        "group": "cosmos-2251-debris",
        "lat": 4.956600022067321,
        "lon": 170.31033711299102,
        "alt_km": 562.405992857417,
        "timestamp": "2025-12-05T09:41:19.529669+00:00",
        "meta_object_name": "COSMOS 2251 DEB",
        "meta_object_id": "1993-036AZN",
        "meta_epoch": "2025-12-02T19:41:49.805376",
        "meta_mean_motion": 14.72268382,
        "meta_eccentricity": 0.01411536,
        "meta_inclination": 73.969,
        "meta_ra_of_asc_node": 173.928,
        "meta_arg_of_pericenter": 350.6385,
        "meta_mean_anomaly": 9.2157,
        "meta_ephemeris_type": 0,
        "meta_classification_type": "U",
        "meta_norad_cat_id": 36385,
        "meta_element_set_no": 999,
        "meta_rev_at_epoch": 84956,
        "meta_bstar": 0.0016407111,
        "meta_mean_motion_dot": 0.00012116,
        "meta_mean_motion_ddot": 0,
        "tle_line1": "1 36385U 93036AZN 25336.82071534  .00012116  00000+0  16407-2 0  9995",
        "tle_line2": "2 36385  73.9690 173.9280 0141153 350.6385   9.2157 14.72268382849565"
      },
      "geometry": {
        "type": "Point",
        "coordinates": [
          170.31033711299102,
          4.956600022067321
        ]
      }
    },
    {
      "type": "Feature",
      "properties": {
        "norad_id": 36420,
        "name": "COSMOS 2251 DEB",
        "group": "cosmos-2251-debris",
        "lat": 27.133531718455693,
        "lon": 100.53338253129054,
        "alt_km": 775.9776283433202,
        "timestamp": "2025-12-05T09:41:19.529680+00:00",
        "meta_object_name": "COSMOS 2251 DEB",
        "meta_object_id": "1993-036AZT",
        "meta_epoch": "2025-12-03T05:28:58.353024",
        "meta_mean_motion": 14.3688527,
        "meta_eccentricity": 0.0017673,
        "meta_inclination": 74.0372,
        "meta_ra_of_asc_node": 292.9652,
        "meta_arg_of_pericenter": 23.016,
        "meta_mean_anomaly": 40.8577,
        "meta_ephemeris_type": 0,
        "meta_classification_type": "U",
        "meta_norad_cat_id": 36420,
        "meta_element_set_no": 999,
        "meta_rev_at_epoch": 84900,
        "meta_bstar": 0.00024398,
        "meta_mean_motion_dot": 6.97e-06,
        "meta_mean_motion_ddot": 0,
        "tle_line1": "1 36420U 93036AZT 25337.22845316  .00000697  00000+0  24398-3 0  9997",
        "tle_line2": "2 36420  74.0372 292.9652 0017673  23.0160  40.8577 14.36885270849007"
      },
      "geometry": {
        "type": "Point",
        "coordinates": [
          100.53338253129054,
          27.133531718455693
        ]
      }
    },
    {
      "type": "Feature",
      "properties": {
        "norad_id": 36430,
        "name": "COSMOS 2251 DEB",
        "group": "cosmos-2251-debris",
        "lat": 50.3777728882718,
        "lon": 142.11961819457397,
        "alt_km": 847.4602558452298,
        "timestamp": "2025-12-05T09:41:19.529689+00:00",
        "meta_object_name": "COSMOS 2251 DEB",
        "meta_object_id": "1993-036BAD",
        "meta_epoch": "2025-12-02T02:24:06.345216",
        "meta_mean_motion": 14.27749233,
        "meta_eccentricity": 0.00972219,
        "meta_inclination": 74.0032,
        "meta_ra_of_asc_node": 127.8413,
        "meta_arg_of_pericenter": 280.0414,
        "meta_mean_anomaly": 78.9776,
        "meta_ephemeris_type": 0,
        "meta_classification_type": "U",
        "meta_norad_cat_id": 36430,
        "meta_element_set_no": 999,
        "meta_rev_at_epoch": 64405,
        "meta_bstar": 0.00050130436,
        "meta_mean_motion_dot": 1.275e-05,
        "meta_mean_motion_ddot": 0,
        "tle_line1": "1 36430U 93036BAD 25336.10007344  .00001275  00000+0  50130-3 0  9991",
        "tle_line2": "2 36430  74.0032 127.8413 0097221 280.0414  78.9776 14.27749233644055"
      },
      "geometry": {
        "type": "Point",
        "coordinates": [
          142.11961819457397,
          50.3777728882718
        ]
      }
    },
    {
      "type": "Feature",
      "properties": {
        "norad_id": 36437,
        "name": "COSMOS 2251 DEB",
        "group": "cosmos-2251-debris",
        "lat": 8.212068763706087,
        "lon": 50.702328576772885,
        "alt_km": 660.958167337647,
        "timestamp": "2025-12-05T09:41:19.529700+00:00",
        "meta_object_name": "COSMOS 2251 DEB",
        "meta_object_id": "1993-036BAL",
        "meta_epoch": "2025-12-02T22:52:02.631936",
        "meta_mean_motion": 14.70397135,
        "meta_eccentricity": 0.00231807,
        "meta_inclination": 73.9435,
        "meta_ra_of_asc_node": 53.1,
        "meta_arg_of_pericenter": 284.4468,
        "meta_mean_anomaly": 75.413,
        "meta_ephemeris_type": 0,
        "meta_classification_type": "U",
        "meta_norad_cat_id": 36437,
        "meta_element_set_no": 999,
        "meta_rev_at_epoch": 65907,
        "meta_bstar": 0.0020592737,
        "meta_mean_motion_dot": 0.00012505,
        "meta_mean_motion_ddot": 0,
        "tle_line1": "1 36437U 93036BAL 25336.95280824  .00012505  00000+0  20593-2 0  9994",
        "tle_line2": "2 36437  73.9435  53.1000 0023180 284.4468  75.4130 14.70397135659072"
      },
      "geometry": {
        "type": "Point",
        "coordinates": [
          50.702328576772885,
          8.212068763706087
        ]
      }
    }
  ]
}